OBJECT_NAME,OBJECT_ID,EPOCH,MEAN_MOTION,ECCENTRICITY,INCLINATION,RA_OF_ASC_NODE,ARG_OF_PERICENTER,MEAN_ANOMALY,EPHEMERIS_TYPE,CLASSIFICATION_TYPE,NORAD_CAT_ID,ELEMENT_SET_NO,REV_AT_EPOCH,BSTAR,MEAN_MOTION_DOT,MEAN_MOTION_DDOT
OPS 6582 (TRANSIT 5B-5),1964-083D,2026-06-06T09:23:44.467296,13.57011799,.00399021,90.0768,202.9533,311.3810,58.8632,0,U,965,999,4215,.55244211E-4,.48E-6,0
LES-1,1965-008C,2026-06-06T10:06:20.403936,9.88354995,.00156107,32.1448,70.2061,231.9473,127.9616,0,U,1002,999,21512,-.22541545E-3,.7E-7,0
SOLRAD 7B,1965-016D,2026-06-06T13:42:00.589824,13.94974436,.00193474,70.0798,258.8333,140.5295,219.7224,0,U,1291,999,11522,.56750543E-4,.24E-6,0
SECOR 4 (EGRS 4),1965-027B,2026-06-06T08:51:28.457568,12.92667605,.00298005,90.2502,15.3338,226.5364,322.4566,0,U,1315,999,88552,-.24230881E-3,-.59E-6,0
TIROS 10,1965-051A,2026-06-06T13:30:29.158272,14.41627071,.00564299,98.5028,276.9409,110.5843,250.1412,0,U,1430,999,19438,.7875044E-4,.217E-5,0
ALOUETTE 2,1965-098A,2026-06-06T15:45:41.551488,12.28334725,.13297081,79.8016,285.6162,253.9016,91.1988,0,U,1804,999,67798,.15837083E-3,.475E-5,0
OV3-3,1966-070A,2026-06-06T13:49:02.917344,13.45040625,.10130476,81.3259,340.3736,185.1892,173.8090,0,U,2389,999,59754,.85256135E-3,.18993E-3,0
SECOR 7 (EGRS 7),1966-077B,2026-05-31T19:23:56.009760,8.59615314,.0011654,90.3353,277.2466,75.1080,285.1061,0,U,2411,999,87597,-.94660848E-2,-.17E-6,0
ERS 15,1966-077C,2026-05-30T06:48:48.924576,8.59079282,.00073123,90.3351,277.0217,86.0359,274.1328,0,U,2412,999,38892,0,.2E-7,0
ISIS 1,1969-009A,2026-06-06T05:11:58.623072,11.30432348,.17059717,88.4418,145.6054,270.4015,70.2661,0,U,3669,999,35853,.5957769E-4,.8E-6,0
SECOR 13 (EGRS 13),1969-037B,2026-06-06T09:23:28.008960,13.42976637,.00386904,99.6502,29.3462,278.1591,262.4757,0,U,3891,999,80030,.1539255E-4,-.34E-6,0
ATS 5,1969-069A,2026-06-06T14:31:40.560384,0.99497315,.00053112,0.2449,157.6923,122.1301,4.1942,0,U,4068,999,4622,0,-.149E-5,0
OPS 7613 (P/L 4),1969-082E,2026-06-06T04:41:00.872736,13.95994695,.00190752,70.0131,127.3721,151.2576,220.3559,0,U,4237,999,88477,.79786792E-4,.57E-6,0
OPS 7613 (P/L 1),1969-082B,2026-06-06T05:27:16.071840,13.99194848,.00171195,70.0102,348.5601,78.2415,282.0612,0,U,4256,999,88893,.10456034E-3,.99E-6,0
SHINSEI (MS-F2),1971-080A,2026-06-06T06:36:12.127104,12.74251757,.0639794,32.0537,150.3471,326.9131,29.2943,0,U,5485,999,54786,.45993097E-4,.45E-6,0
PROSPERO (BLACK ARROW),1971-093A,2026-06-06T12:27:19.494432,14.01586573,.0500168,82.0382,300.1950,257.6986,96.7776,0,U,5580,999,74703,.24106835E-3,.1127E-4,0
OPS 7898 (P/L 2),1971-110C,2026-06-06T07:54:10.908288,13.74757920,.00084531,69.9907,25.3287,200.4881,159.5875,0,U,5680,999,34672,.42529409E-4,-.1E-6,0
NOAA 2 (ITOS-D),1972-082A,2026-06-06T12:28:25.733856,12.53214671,.00040845,102.0075,175.9743,184.6524,299.9543,0,U,6235,999,45361,.41776804E-4,-.4E-6,0
OSCAR 7 (AO-7),1974-089B,2026-06-06T07:00:44.160192,12.53697887,.00124557,101.9901,170.4251,150.4267,278.6605,0,U,7530,999,35915,-.4584706E-5,-.47E-6,0
TIROS N,1978-096A,2026-06-06T11:50:45.654144,14.19372154,.00091017,98.4533,179.0308,274.1551,85.8586,0,U,11060,999,67723,.76125818E-4,.119E-5,0
PHASE 3B (AO-10),1983-058B,2026-06-05T17:10:32.210112,2.05872928,.60147622,25.9038,221.4654,112.5116,319.5552,0,U,14129,999,29525,0,-.155E-5,0
HILAT,1983-063A,2026-06-06T12:55:58.089792,14.38704766,.00384131,82.0232,170.9261,324.7796,148.4550,0,U,14154,999,24605,.12073591E-3,.389E-5,0
UOSAT 2 (UO-11),1984-021B,2026-06-06T14:47:27.152736,14.90757715,.00066867,97.8051,123.3096,208.9078,151.1770,0,U,14781,999,25555,.13880916E-3,.1308E-4,0
NOAA 9,1984-123A,2026-06-06T13:15:14.487264,14.17065427,.00150284,99.0991,183.9432,24.1661,91.1259,0,U,15427,999,14191,.80609981E-4,.116E-5,0
GEOSAT,1985-021A,2026-06-06T12:29:15.870048,14.39961409,.00013012,108.0436,59.2505,280.0254,80.0741,0,U,15595,999,16123,.87467471E-4,.14E-5,0
EUTELSAT 1-F4 (ECS 4),1987-078B,2026-06-06T04:58:49.437696,0.98690373,.00112186,13.8363,342.2051,42.6090,318.3125,0,U,18351,999,12665,0,-.139E-5,0
PACSAT (AO-16),1990-005D,2026-06-06T08:37:23.158848,14.33933347,.00094464,98.8526,192.7844,262.7053,164.9727,0,U,20439,999,90038,.67186981E-4,.141E-5,0
LUSAT (LO-19),1990-005G,2026-06-06T07:09:09.999360,14.34119909,.00106028,98.8853,178.8033,235.0783,124.9405,0,U,20442,999,90083,.64874393E-4,.135E-5,0
IRS-1B,1991-061A,2026-06-06T12:51:55.266048,13.97871241,.00250042,99.4106,165.2168,34.4883,78.3320,0,U,21688,999,66700,.22707752E-3,.276E-5,0
COSMOS 2197,1992-042A,2026-06-06T10:55:06.092832,12.64251953,.00114516,82.5947,235.7902,300.8014,69.9067,0,U,22034,999,56393,.61884904E-4,.22E-6,0
PEGASUS R/B,1993-009C,2026-06-06T07:23:08.512224,14.57956493,.00438756,24.9760,158.4813,350.0910,9.8735,0,U,22491,999,76804,.18022881E-3,.1058E-4,0
EYESAT A (AO-27),1993-061C,2026-06-06T03:52:47.686656,14.30939453,.00093193,98.6881,224.5788,128.3120,231.8902,0,U,22825,999,70542,.65389585E-4,.127E-5,0
ITAMSAT (IO-26),1993-061D,2026-06-06T10:10:31.538496,14.31365980,.00100328,98.6828,224.7574,112.9281,247.2962,0,U,22826,999,70577,.61228032E-4,.118E-5,0
RADIO ROSTO (RS15),1994-085A,2026-06-06T11:21:32.351904,11.27583601,.01556133,64.8186,320.5439,5.8553,354.4146,0,U,23439,999,29469,.78050327E-4,-.4E-6,0
JAS-2 (FO-29),1996-046B,2026-06-06T12:23:53.350080,13.53273662,.03507126,98.5249,7.8502,124.0498,239.4465,0,U,24278,999,47172,.8601335E-5,-.24E-6,0
FORTE,1997-047A,2026-06-06T09:03:16.720704,14.27941052,.00244477,69.9543,38.4383,290.4591,69.3907,0,U,24920,999,49714,.10020475E-3,.191E-5,0
NOAA 15,1998-030A,2026-06-06T14:22:48.066816,14.27143257,.00107078,98.5068,178.5177,25.1414,335.0286,0,U,25338,999,45978,.63752766E-4,.113E-5,0
TECHSAT 1B (GO-32),1998-043D,2026-06-06T12:40:13.432800,14.24426343,.00004608,99.0065,150.0178,194.1951,165.9214,0,U,25397,999,44981,.50114301E-4,.69E-6,0
ISS (ZARYA),1998-067A,2026-06-06T08:29:08.600064,15.49636045,.00065437,51.6350,353.7261,141.0671,219.0790,0,U,25544,999,63684,.10710771E-2,.60395E-3,0
ORSTED,1999-008B,2026-06-06T11:56:59.757504,14.51799159,.01307791,96.4831,67.4407,220.3691,138.7747,0,U,25635,999,44041,.10453088E-3,.436E-5,0
LANDSAT 7,1999-020A,2026-06-06T14:20:03.643296,14.63907978,.00017772,97.8579,161.7183,95.5601,52.2803,0,U,25682,999,44429,.99082907E-4,.474E-5,0
ORBCOMM FM36,1999-065E,2026-06-06T10:02:38.870880,14.39178746,.00053597,45.0376,210.7090,267.9065,92.1170,0,U,25984,999,38543,.31529138E-3,.843E-5,0
DMSP 5D-3 F15 (USA 147),1999-067A,2026-06-06T15:29:11.885280,14.17561067,.00105972,98.9965,196.0680,37.9187,69.0080,0,U,25991,999,36915,.10259121E-3,.163E-5,0
OPAL (OO-38),2000-004C,2026-06-06T12:45:21.853152,14.37960624,.00365054,100.1911,92.3891,65.6151,294.8833,0,U,26063,999,38175,.79327245E-4,.183E-5,0
IMAGE,2000-017A,2026-06-01T06:23:33.544608,1.68666062,.74437368,94.2162,315.1599,289.6105,8.6041,0,U,26113,999,16123,-.18882371E-1,-.99E-6,0
CLUSTER II-FM7 (SAMBA),2000-041A,2026-06-05T23:36:57.501504,0.44829937,.90409651,149.8917,48.5803,265.6480,0.0292,0,U,26410,999,2025,0,.4453E-4,0
CLUSTER II-FM8 (TANGO),2000-045B,2026-06-03T22:20:35.712960,0.44411373,.90429738,150.1347,49.2777,266.1813,3.2525,0,U,26464,999,2025,0,.9075E-4,0
MEGSAT-1,2000-057B,2026-06-06T13:58:26.537376,15.05435533,.00419209,64.5497,103.0947,284.9510,74.6968,0,U,26546,999,39606,.29081089E-3,.4091E-4,0
PHASE 3D (AO-40),2000-072B,2026-06-06T05:50:29.302080,1.25588165,.7930844,9.4434,352.6510,175.0441,205.8802,0,U,26609,999,11737,0,-.96E-6,0
ODIN,2001-007A,2026-06-05T01:51:31.380192,15.71871760,.00063013,97.3851,196.2749,158.1180,202.0353,0,U,26702,999,38749,.10497223E-2,.138173E-2,0
OMNI-M1,2001-026A,2026-06-06T06:31:40.755072,3.92401464,.00145211,44.8341,247.7806,52.1871,307.9956,0,U,26857,999,20514,0,-.11E-6,0
PCSAT (NO-44),2001-043C,2026-06-06T14:42:12.833856,14.31952422,.00061165,67.0513,271.6217,264.1922,95.8483,0,U,26931,999,28893,.90579086E-4,.16E-5,0
PROBA-1,2001-049B,2026-06-06T13:58:55.996320,15.07446015,.00553878,97.9594,165.7457,157.2462,203.1238,0,U,26958,999,34202,.13573685E-3,.2058E-4,0
SPOT 5,2002-021A,2026-06-06T12:14:41.889120,14.54744856,.01285046,97.9852,196.8456,310.0843,48.9144,0,U,27421,999,26129,.8664036E-4,.363E-5,0
FENGYUN 1D,2002-024B,2026-06-06T10:26:03.873984,14.10223117,.00143097,98.9524,207.8137,273.4405,86.5129,0,U,27431,999,23796,.65473898E-4,.71E-6,0
SAUDISAT 1C (SO-50),2002-058C,2026-06-06T07:09:59.826240,14.83023212,.00754835,64.5503,162.6740,264.4886,94.7607,0,U,27607,999,26284,.14995839E-3,.1127E-4,0
CORIOLIS,2003-001A,2026-06-06T11:40:32.213280,14.19941957,.00129017,98.7127,164.5346,241.7256,118.2619,0,U,27640,999,21270,.76369352E-4,.119E-5,0
CUTE-1 (CO-55),2003-031E,2026-06-06T11:59:55.617792,14.24329258,.00088506,98.6735,166.1932,210.1158,149.9513,0,U,27844,999,19015,.15774609E-3,.321E-5,0
CUBESAT XI-IV (CO-57),2003-031J,2026-06-06T06:31:58.001376,14.23615092,.00084449,98.6767,165.6897,231.2681,128.7744,0,U,27848,999,18982,.14039676E-3,.276E-5,0
MOZHAETS 4 (RS22),2003-042A,2026-06-06T14:54:27.183744,14.73448246,.00102457,98.3469,341.6815,307.2524,128.2707,0,U,27939,999,21399,.15964978E-3,.983E-5,0
IRS-P6 (RESOURCESAT-1),2003-046A,2026-06-06T13:50:14.211168,14.36159493,.00646729,98.1907,194.6096,15.2571,87.2748,0,U,28051,999,17900,.91482066E-4,.232E-5,0
SAUDISAT 2,2004-025F,2026-06-06T12:28:04.362816,14.56677687,.00241109,98.5506,157.2259,332.2198,27.7710,0,U,28371,999,16419,.82867624E-4,.321E-5,0
COSMOS 2407,2004-028A,2026-06-06T13:08:20.268384,13.76333833,.00378279,82.9607,82.7137,282.8221,250.4848,0,U,28380,999,9841,.55906585E-4,.7E-6,0
COSMOS 2414,2005-002A,2026-06-06T03:30:51.424128,13.87925665,.00402572,82.9507,51.9982,3.0323,357.1077,0,U,28521,999,8228,.48605797E-4,.74E-6,0
INMARSAT 4-F1,2005-009A,2026-06-06T15:13:37.685280,1.00272422,.00028629,5.1535,42.7367,36.6099,222.2333,0,U,28628,999,7756,0,.45E-6,0
